INTELSAT 21 (IS-21)     
1 38749U 12045A   26168.88535088 -.00000290  00000+0  00000+0 0  9991
2 38749   0.0171   2.7764 0001389 103.9364  60.1373  1.00269964 50535
ASTRA 2F                
1 38778U 12051A   26168.90235912  .00000144  00000+0  00000+0 0  9993
2 38778   0.0608 256.4291 0001521 282.2247  80.5153  1.00270279 41144
GSAT-10                 
1 38779U 12051B   26168.41421902 -.00000169  00000+0  00000+0 0  9994
2 38779   0.0798 262.4016 0007809 185.0028  50.3859  1.00269883 50102
INTELSAT 23 (IS-23)     
1 38867U 12057A   26168.88630421 -.00000290  00000+0  00000+0 0  9992
2 38867   0.0131 313.6421 0000162  58.3730 160.1836  1.00267723 49965
BEIDOU-2 G6             
1 38953U 12059A   26168.86460605 -.00000183  00000+0  00000+0 0  9994
2 38953   4.4232  73.5129 0009595 324.1649 263.7310  1.00271808 49911
LUCH-5B                 
1 38977U 12061A   26168.96489115 -.00000148  00000+0  00000+0 0  9992
2 38977  10.4865  49.8738 0002452 151.1367  36.2873  1.00272021 49610
YAMAL 300K              
1 38978U 12061B   26167.79234803  .00000000  00000+0  00000+0 0  9991
2 38978   0.0160   0.7389 0001474 250.0147 122.4987  1.00267966 49627
STAR ONE C3             
1 38991U 12062A   26168.88197087 -.00000254  00000+0  00000+0 0  9992
2 38991   0.0185 331.2165 0002212 128.2019  49.2329  1.00270633 49775
EUTELSAT 21B            
1 38992U 12062B   26168.80495236  .00000125  00000+0  00000+0 0  9998
2 38992   0.0660 345.8901 0003098  99.7408 131.8383  1.00275587 49838
ECHOSTAR 16             
1 39008U 12065A   26167.74398365 -.00000284  00000+0  00000+0 0  9994
2 39008   0.0180  27.9150 0001931  61.4112  22.0141  1.00273788 49643
ZHONGXING-12            
1 39017U 12067A   26168.91412839 -.00000212  00000+0  00000+0 0  9990
2 39017   0.0412  88.9017 0002742 348.9921 244.8476  1.00271580 49511
EUTELSAT 70B            
1 39020U 12069A   26168.91074837 -.00000049  00000+0  00000+0 0  9996
2 39020   0.0655  17.0978 0003920  62.0472 225.3690  1.00271695 49516
YAMAL 402               
1 39022U 12070A   26168.97893966  .00000080  00000+0  00000+0 0  9992
2 39022   1.2680  84.1488 0003679   2.2459 227.1415  1.00271691 49401
SKYNET 5D               
1 39034U 12075A   26168.90728169  .00000094  00000+0  00000+0 0  9990
2 39034   0.0661 352.1567 0003514 102.6557 190.7297  1.00270653 49161
MEXSAT 3                
1 39035U 12075B   26168.46919677 -.00000030  00000+0  00000+0 0  9999
2 39035   0.0246  73.6909 0001171   3.4279 242.6944  1.00268627  7058
TDRS 11                 
1 39070U 13004A   26168.86229745  .00000072  00000+0  00000+0 0  9990
2 39070   3.5216  31.2700 0005424  20.7984 350.0485  1.00269727 46702
AMAZONAS 3              
1 39078U 13006A   26168.88474421 -.00000288  00000+0  00000+0 0  9995
2 39078   0.0415 197.8016 0001920 293.5855  32.2568  1.00272139 44920
AZERSPACE 1             
1 39079U 13006B   26168.90589501  .00000128  00000+0  00000+0 0  9997
2 39079   0.0132  45.8277 0001292  70.9423 161.4801  1.00270387 48818
SBIRS GEO-2 (USA 241)   
1 39120U 13011A   26168.53050573 -.00000293  00000+0  00000+0 0  9995
2 39120   4.4901  52.5090 0002147  26.2219 328.2330  1.00271368 48531
EUTELSAT 117 WEST A     
1 39122U 13012A   26168.87356417 -.00000018  00000+0  00000+0 0  9996
2 39122   0.0165  22.6794 0002675  63.4374  17.6780  1.00271395 48445
ANIK G1                 
1 39127U 13014A   26168.87547084 -.00000079  00000+0  00000+0 0  9992
2 39127   0.0111  46.4950 0001527  32.5397  34.9362  1.00270858 48267
ZHONGXING-11            
1 39157U 13020A   26168.64546316 -.00000295  00000+0  00000+0 0  9994
2 39157   0.0385 295.4054 0002180 140.8567 159.8878  1.00267596 47906
EUTELSAT 7B             
1 39163U 13022A   26168.89808899  .00000042  00000+0  00000+0 0  9996
2 39163   0.0642 352.5694 0004411  42.7618 201.1329  1.00268423 47957
WGS F5 (USA 243)        
1 39168U 13024A   26168.34906102  .00000000  00000+0  00000+0 0  9993
2 39168   0.0199   7.0971 0000314 298.7521  32.9132  1.00268681 47175
SES-6                   
1 39172U 13026A   26167.96219947 -.00000264  00000+0  00000+0 0  9994
2 39172   0.0245 319.1789 0002640 153.9481  97.9765  1.00269050 47722
IRNSS-1A                
1 39199U 13034A   26160.59779131  .00000070  00000+0  00000+0 0  9994
2 39199  35.7049  63.9797 0017411 184.2474 279.8453  1.00272948 47299
MUOS-2                  
1 39206U 13036A   26168.85961078 -.00000020  00000+0  00000+0 0  9991
2 39206   4.9963  45.5314 0051077 177.4614 164.5389  1.00273299 47195
ALPHASAT                
1 39215U 13038A   26168.90175245  .00000127  00000+0  00000+0 0  9999
2 39215   2.9984   1.3244 0001654  86.7686 167.5434  1.00270953 44022
INSAT-3D                
1 39216U 13038B   26168.92244843 -.00000346  00000+0  00000+0 0  9997
2 39216   1.9288  82.5294 0000580 314.9768 330.2447  1.00268839 47081
WGS F6 (USA 244)        
1 39222U 13041A   26168.46894066  .00000084  00000+0  00000+0 0  9993
2 39222   0.0170   4.3539 0000596   6.2335 288.7606  1.00272253 46066
ES'HAIL 1               
1 39233U 13044A   26168.54541247  .00000139  00000+0  00000+0 0  9998
2 39233   0.0476 347.9569 0002133  95.4144  44.2754  1.00273901 46636
GSAT-7                  
1 39234U 13044B   26168.91144170 -.00000082  00000+0  00000+0 0  9992
2 39234   0.0860  93.6156 0003099 190.5472  24.0760  1.00270520 45269
