OBJECT_NAME,OBJECT_ID,EPOCH,MEAN_MOTION,ECCENTRICITY,INCLINATION,RA_OF_ASC_NODE,ARG_OF_PERICENTER,MEAN_ANOMALY,EPHEMERIS_TYPE,CLASSIFICATION_TYPE,NORAD_CAT_ID,ELEMENT_SET_NO,REV_AT_EPOCH,BSTAR,MEAN_MOTION_DOT,MEAN_MOTION_DDOT
INTELSAT 21 (IS-21),2012-045A,2026-06-17T21:14:54.316032,1.00269964,.00013892,0.0171,2.7764,103.9364,60.1373,0,U,38749,999,5053,0,-.29E-5,0
ASTRA 2F,2012-051A,2026-06-17T21:39:23.827968,1.00270279,.00015211,0.0608,256.4291,282.2247,80.5153,0,U,38778,999,4114,0,.144E-5,0
GSAT-10,2012-051B,2026-06-17T09:56:28.523328,1.00269883,.00078098,0.0798,262.4016,185.0028,50.3859,0,U,38779,999,5010,0,-.169E-5,0
INTELSAT 23 (IS-23),2012-057A,2026-06-17T21:16:16.683744,1.00267723,.00001627,0.0131,313.6421,58.3730,160.1836,0,U,38867,999,4996,0,-.29E-5,0
BEIDOU-2 G6,2012-059A,2026-06-17T20:45:01.962720,1.00271808,.00095954,4.4232,73.5129,324.1649,263.7310,0,U,38953,999,4991,0,-.183E-5,0
LUCH-5B,2012-061A,2026-06-17T23:09:26.595360,1.00272021,.00024527,10.4865,49.8738,151.1367,36.2873,0,U,38977,999,4961,0,-.148E-5,0
YAMAL 300K,2012-061B,2026-06-16T19:00:58.869792,1.00267966,.00014742,0.0160,0.7389,250.0147,122.4987,0,U,38978,999,4962,0,0,0
STAR ONE C3,2012-062A,2026-06-17T21:10:02.283168,1.00270633,.00022129,0.0185,331.2165,128.2019,49.2329,0,U,38991,999,4977,0,-.254E-5,0
EUTELSAT 21B,2012-062B,2026-06-17T19:19:07.883904,1.00275587,.00030987,0.0660,345.8901,99.7408,131.8383,0,U,38992,999,4983,0,.125E-5,0
ECHOSTAR 16,2012-065A,2026-06-16T17:51:20.187360,1.00273788,.0001931,0.0180,27.9150,61.4112,22.0141,0,U,39008,999,4964,0,-.284E-5,0
ZHONGXING-12,2012-067A,2026-06-17T21:56:20.692896,1.00271580,.00027421,0.0412,88.9017,348.9921,244.8476,0,U,39017,999,4951,0,-.212E-5,0
EUTELSAT 70B,2012-069A,2026-06-17T21:51:28.659168,1.00271695,.00039203,0.0655,17.0978,62.0472,225.3690,0,U,39020,999,4951,0,-.49E-6,0
YAMAL 402,2012-070A,2026-06-17T23:29:40.386624,1.00271691,.00036792,1.2680,84.1488,2.2459,227.1415,0,U,39022,999,4940,0,.8E-6,0
SKYNET 5D,2012-075A,2026-06-17T21:46:29.138016,1.00270653,.00035147,0.0661,352.1567,102.6557,190.7297,0,U,39034,999,4916,0,.94E-6,0
MEXSAT 3,2012-075B,2026-06-17T11:15:38.600928,1.00268627,.00011717,0.0246,73.6909,3.4279,242.6944,0,U,39035,999,705,0,-.3E-6,0
TDRS 11,2013-004A,2026-06-17T20:41:42.499680,1.00269727,.00054249,3.5216,31.2700,20.7984,350.0485,0,U,39070,999,4670,0,.72E-6,0
AMAZONAS 3,2013-006A,2026-06-17T21:14:01.899744,1.00272139,.00019204,0.0415,197.8016,293.5855,32.2568,0,U,39078,999,4492,0,-.288E-5,0
AZERSPACE 1,2013-006B,2026-06-17T21:44:29.328864,1.00270387,.00012926,0.0132,45.8277,70.9423,161.4801,0,U,39079,999,4881,0,.128E-5,0
SBIRS GEO-2 (USA 241),2013-011A,2026-06-17T12:43:55.695072,1.00271368,.00021475,4.4901,52.5090,26.2219,328.2330,0,U,39120,999,4853,0,-.293E-5,0
EUTELSAT 117 WEST A,2013-012A,2026-06-17T20:57:55.944288,1.00271395,.00026755,0.0165,22.6794,63.4374,17.6780,0,U,39122,999,4844,0,-.18E-6,0
ANIK G1,2013-014A,2026-06-17T21:00:40.680576,1.00270858,.00015271,0.0111,46.4950,32.5397,34.9362,0,U,39127,999,4826,0,-.79E-6,0
ZHONGXING-11,2013-020A,2026-06-17T15:29:28.017024,1.00267596,.00021809,0.0385,295.4054,140.8567,159.8878,0,U,39157,999,4790,0,-.295E-5,0
EUTELSAT 7B,2013-022A,2026-06-17T21:33:14.888736,1.00268423,.00044116,0.0642,352.5694,42.7618,201.1329,0,U,39163,999,4795,0,.42E-6,0
WGS F5 (USA 243),2013-024A,2026-06-17T08:22:38.872128,1.00268681,.00003147,0.0199,7.0971,298.7521,32.9132,0,U,39168,999,4717,0,0,0
SES-6,2013-026A,2026-06-16T23:05:34.034208,1.00269050,.00026406,0.0245,319.1789,153.9481,97.9765,0,U,39172,999,4772,0,-.264E-5,0
IRNSS-1A,2013-034A,2026-06-09T14:20:49.169184,1.00272948,.00174117,35.7049,63.9797,184.2474,279.8453,0,U,39199,999,4729,0,.7E-6,0
MUOS-2,2013-036A,2026-06-17T20:37:50.371392,1.00273299,.00510779,4.9963,45.5314,177.4614,164.5389,0,U,39206,999,4719,0,-.2E-6,0
ALPHASAT,2013-038A,2026-06-17T21:38:31.411680,1.00270953,.00016544,2.9984,1.3244,86.7686,167.5434,0,U,39215,999,4402,0,.127E-5,0
INSAT-3D,2013-038B,2026-06-17T22:08:19.544352,1.00268839,.00005805,1.9288,82.5294,314.9768,330.2447,0,U,39216,999,4708,0,-.346E-5,0
WGS F6 (USA 244),2013-041A,2026-06-17T11:15:16.473024,1.00272253,.0000596,0.0170,4.3539,6.2335,288.7606,0,U,39222,999,4606,0,.84E-6,0
ES'HAIL 1,2013-044A,2026-06-17T13:05:23.637408,1.00273901,.00021336,0.0476,347.9569,95.4144,44.2754,0,U,39233,999,4663,0,.139E-5,0
GSAT-7,2013-044B,2026-06-17T21:52:28.562880,1.00270520,.00030995,0.0860,93.6156,190.5472,24.0760,0,U,39234,999,4526,0,-.82E-6,0
